USA 119                 
1 23893U 96029A   26068.41677233  .00001640  00000+0  29026-3 0  9998
2 23893  63.3196  93.1190 0846389  47.6314 319.3281 13.45886981 91843
STARLINK-31739          
1 59766U 24091P   26068.28389085 -.00001053  00000+0 -23421-4 0  9990
2 59766  53.1623  25.8419 0001211  82.7777 277.3361 15.30194066102981
